STARLINK-36927          
1 67941U 26037K   26075.26206750  .00363541  00000+0  16432-2 0  9992
2 67941  42.9980 158.1691 0002085 300.5053  59.5612 15.82201899  4291
STARLINK-36914          
1 67942U 26037L   26075.26506392  .00334448  00000+0  15198-2 0  9990
2 67942  42.9982 158.1943 0001711 272.9186  87.1490 15.82163056  4291
STARLINK-36851          
1 67943U 26037M   26075.26431782  .00265569  00000+0  12188-2 0  9994
2 67943  42.9982 158.1883 0001648 269.4822  90.5861 15.82131684  4294
STARLINK-36892          
1 67944U 26037N   26075.26281541  .00262878  00000+0  12069-2 0  9999
2 67944  42.9982 158.1761 0002157 239.3056 120.7603 15.82130840  4294
STARLINK-36908          
1 67945U 26037P   26075.26131943  .00211567  00000+0  97883-3 0  9997
2 67945  42.9985 158.1635 0001587 270.9422  89.1268 15.82105097  4293
STARLINK-36909          
1 67946U 26037Q   26075.26056301  .00443666  00000+0  19843-2 0  9998
2 67946  42.9983 158.1571 0002023 298.4490  61.6178 15.82222146  4297
STARLINK-36920          
1 67947U 26037R   26075.25982751  .00474350  00000+0  21242-2 0  9995
2 67947  42.9982 158.1513 0003452 338.1333  21.9390 15.82114717  4297
STARLINK-36873          
1 67948U 26037S   26075.25914306 -.00503362  00000+0 -25928-2 0  9990
2 67948  42.9977 158.1448 0002375 249.7909 110.2708 15.81483093  4298
STARLINK-36863          
1 67949U 26037T   26075.25832487  .00311256  00000+0  14187-2 0  9992
2 67949  42.9983 158.1387 0003244 328.6365  31.4313 15.82157190  4290
STARLINK-36887          
1 67950U 26037U   26072.98472422  .00715143  00000+0  30610-2 0  9992
2 67950  42.9981 172.0607 0001689 286.6573  73.4114 15.82469233  3934
STARLINK-36897          
1 67951U 26037V   26075.25682710  .00285461  00000+0  13063-2 0  9997
2 67951  42.9986 158.1265 0002269 313.9072  46.1612 15.82141794  4297
STARLINK-36381          
1 67952U 26037W   26075.25532578  .00335751  00000+0  15255-2 0  9997
2 67952  42.9985 158.1140 0003129 331.6719  28.3982 15.82161289  4293
