CCSDS_OMM_VERS = 2.0
CREATION_DATE  = 
ORIGINATOR     = 

OBJECT_NAME    = STARLINK-36927
OBJECT_ID      = 2026-037K
CENTER_NAME    = EARTH
REF_FRAME      = TEME
TIME_SYSTEM    = UTC
MEAN_ELEMENT_THEORY = SGP/SGP4

EPOCH          = 2026-03-16T06:17:22.632000
MEAN_MOTION    = 15.82201899
ECCENTRICITY   = .00020854
INCLINATION    = 42.9980
RA_OF_ASC_NODE = 158.1691
ARG_OF_PERICENTER = 300.5053
MEAN_ANOMALY   = 59.5612

EPHEMERIS_TYPE = 0
CLASSIFICATION_TYPE = U
NORAD_CAT_ID   = 67941
ELEMENT_SET_NO = 999
REV_AT_EPOCH   = 429
BSTAR          = .16431984E-2
MEAN_MOTION_DOT = .363541E-2
MEAN_MOTION_DDOT = 0

CCSDS_OMM_VERS = 2.0
CREATION_DATE  = 
ORIGINATOR     = 

OBJECT_NAME    = STARLINK-36914
OBJECT_ID      = 2026-037L
CENTER_NAME    = EARTH
REF_FRAME      = TEME
TIME_SYSTEM    = UTC
MEAN_ELEMENT_THEORY = SGP/SGP4

EPOCH          = 2026-03-16T06:21:41.522688
MEAN_MOTION    = 15.82163056
ECCENTRICITY   = .00017116
INCLINATION    = 42.9982
RA_OF_ASC_NODE = 158.1943
ARG_OF_PERICENTER = 272.9186
MEAN_ANOMALY   = 87.1490

EPHEMERIS_TYPE = 0
CLASSIFICATION_TYPE = U
NORAD_CAT_ID   = 67942
ELEMENT_SET_NO = 999
REV_AT_EPOCH   = 429
BSTAR          = .15197952E-2
MEAN_MOTION_DOT = .334448E-2
MEAN_MOTION_DDOT = 0

CCSDS_OMM_VERS = 2.0
CREATION_DATE  = 
ORIGINATOR     = 

OBJECT_NAME    = STARLINK-36851
OBJECT_ID      = 2026-037M
CENTER_NAME    = EARTH
REF_FRAME      = TEME
TIME_SYSTEM    = UTC
MEAN_ELEMENT_THEORY = SGP/SGP4

EPOCH          = 2026-03-16T06:20:37.059648
MEAN_MOTION    = 15.82131684
ECCENTRICITY   = .00016489
INCLINATION    = 42.9982
RA_OF_ASC_NODE = 158.1883
ARG_OF_PERICENTER = 269.4822
MEAN_ANOMALY   = 90.5861

EPHEMERIS_TYPE = 0
CLASSIFICATION_TYPE = U
NORAD_CAT_ID   = 67943
ELEMENT_SET_NO = 999
REV_AT_EPOCH   = 429
BSTAR          = .12188299E-2
MEAN_MOTION_DOT = .265569E-2
MEAN_MOTION_DDOT = 0

CCSDS_OMM_VERS = 2.0
CREATION_DATE  = 
ORIGINATOR     = 

OBJECT_NAME    = STARLINK-36892
OBJECT_ID      = 2026-037N
CENTER_NAME    = EARTH
REF_FRAME      = TEME
TIME_SYSTEM    = UTC
MEAN_ELEMENT_THEORY = SGP/SGP4

EPOCH          = 2026-03-16T06:18:27.251424
MEAN_MOTION    = 15.82130840
ECCENTRICITY   = .00021571
INCLINATION    = 42.9982
RA_OF_ASC_NODE = 158.1761
ARG_OF_PERICENTER = 239.3056
MEAN_ANOMALY   = 120.7603

EPHEMERIS_TYPE = 0
CLASSIFICATION_TYPE = U
NORAD_CAT_ID   = 67944
ELEMENT_SET_NO = 999
REV_AT_EPOCH   = 429
BSTAR          = .12069055E-2
MEAN_MOTION_DOT = .262878E-2
MEAN_MOTION_DDOT = 0

CCSDS_OMM_VERS = 2.0
CREATION_DATE  = 
ORIGINATOR     = 

OBJECT_NAME    = STARLINK-36908
OBJECT_ID      = 2026-037P
CENTER_NAME    = EARTH
REF_FRAME      = TEME
TIME_SYSTEM    = UTC
MEAN_ELEMENT_THEORY = SGP/SGP4

EPOCH          = 2026-03-16T06:16:17.998752
MEAN_MOTION    = 15.82105097
ECCENTRICITY   = .00015875
INCLINATION    = 42.9985
RA_OF_ASC_NODE = 158.1635
ARG_OF_PERICENTER = 270.9422
MEAN_ANOMALY   = 89.1268

EPHEMERIS_TYPE = 0
CLASSIFICATION_TYPE = U
NORAD_CAT_ID   = 67945
ELEMENT_SET_NO = 999
REV_AT_EPOCH   = 429
BSTAR          = .97882847E-3
MEAN_MOTION_DOT = .211567E-2
MEAN_MOTION_DDOT = 0

CCSDS_OMM_VERS = 2.0
CREATION_DATE  = 
ORIGINATOR     = 

OBJECT_NAME    = STARLINK-36909
OBJECT_ID      = 2026-037Q
CENTER_NAME    = EARTH
REF_FRAME      = TEME
TIME_SYSTEM    = UTC
MEAN_ELEMENT_THEORY = SGP/SGP4

EPOCH          = 2026-03-16T06:15:12.644064
MEAN_MOTION    = 15.82222146
ECCENTRICITY   = .00020234
INCLINATION    = 42.9983
RA_OF_ASC_NODE = 158.1571
ARG_OF_PERICENTER = 298.4490
MEAN_ANOMALY   = 61.6178

EPHEMERIS_TYPE = 0
CLASSIFICATION_TYPE = U
NORAD_CAT_ID   = 67946
ELEMENT_SET_NO = 999
REV_AT_EPOCH   = 429
BSTAR          = .1984251E-2
MEAN_MOTION_DOT = .443666E-2
MEAN_MOTION_DDOT = 0

CCSDS_OMM_VERS = 2.0
CREATION_DATE  = 
ORIGINATOR     = 

OBJECT_NAME    = STARLINK-36920
OBJECT_ID      = 2026-037R
CENTER_NAME    = EARTH
REF_FRAME      = TEME
TIME_SYSTEM    = UTC
MEAN_ELEMENT_THEORY = SGP/SGP4

EPOCH          = 2026-03-16T06:14:09.096864
MEAN_MOTION    = 15.82114717
ECCENTRICITY   = .00034527
INCLINATION    = 42.9982
RA_OF_ASC_NODE = 158.1513
ARG_OF_PERICENTER = 338.1333
MEAN_ANOMALY   = 21.9390

EPHEMERIS_TYPE = 0
CLASSIFICATION_TYPE = U
NORAD_CAT_ID   = 67947
ELEMENT_SET_NO = 999
REV_AT_EPOCH   = 429
BSTAR          = .21242401E-2
MEAN_MOTION_DOT = .47435E-2
MEAN_MOTION_DDOT = 0

CCSDS_OMM_VERS = 2.0
CREATION_DATE  = 
ORIGINATOR     = 

OBJECT_NAME    = STARLINK-36873
OBJECT_ID      = 2026-037S
CENTER_NAME    = EARTH
REF_FRAME      = TEME
TIME_SYSTEM    = UTC
MEAN_ELEMENT_THEORY = SGP/SGP4

EPOCH          = 2026-03-16T06:13:09.960384
MEAN_MOTION    = 15.81483093
ECCENTRICITY   = .00023758
INCLINATION    = 42.9977
RA_OF_ASC_NODE = 158.1448
ARG_OF_PERICENTER = 249.7909
MEAN_ANOMALY   = 110.2708

EPHEMERIS_TYPE = 0
CLASSIFICATION_TYPE = U
NORAD_CAT_ID   = 67948
ELEMENT_SET_NO = 999
REV_AT_EPOCH   = 429
BSTAR          = -.25927857E-2
MEAN_MOTION_DOT = -.503362E-2
MEAN_MOTION_DDOT = 0

CCSDS_OMM_VERS = 2.0
CREATION_DATE  = 
ORIGINATOR     = 

OBJECT_NAME    = STARLINK-36863
OBJECT_ID      = 2026-037T
CENTER_NAME    = EARTH
REF_FRAME      = TEME
TIME_SYSTEM    = UTC
MEAN_ELEMENT_THEORY = SGP/SGP4

EPOCH          = 2026-03-16T06:11:59.268768
MEAN_MOTION    = 15.82157190
ECCENTRICITY   = .00032443
INCLINATION    = 42.9983
RA_OF_ASC_NODE = 158.1387
ARG_OF_PERICENTER = 328.6365
MEAN_ANOMALY   = 31.4313

EPHEMERIS_TYPE = 0
CLASSIFICATION_TYPE = U
NORAD_CAT_ID   = 67949
ELEMENT_SET_NO = 999
REV_AT_EPOCH   = 429
BSTAR          = .14186613E-2
MEAN_MOTION_DOT = .311256E-2
MEAN_MOTION_DDOT = 0

CCSDS_OMM_VERS = 2.0
CREATION_DATE  = 
ORIGINATOR     = 

OBJECT_NAME    = STARLINK-36887
OBJECT_ID      = 2026-037U
CENTER_NAME    = EARTH
REF_FRAME      = TEME
TIME_SYSTEM    = UTC
MEAN_ELEMENT_THEORY = SGP/SGP4

EPOCH          = 2026-03-13T23:38:00.172608
MEAN_MOTION    = 15.82469233
ECCENTRICITY   = .0001689
INCLINATION    = 42.9981
RA_OF_ASC_NODE = 172.0607
ARG_OF_PERICENTER = 286.6573
MEAN_ANOMALY   = 73.4114

EPHEMERIS_TYPE = 0
CLASSIFICATION_TYPE = U
NORAD_CAT_ID   = 67950
ELEMENT_SET_NO = 999
REV_AT_EPOCH   = 393
BSTAR          = .30610012E-2
MEAN_MOTION_DOT = .715143E-2
MEAN_MOTION_DDOT = 0

CCSDS_OMM_VERS = 2.0
CREATION_DATE  = 
ORIGINATOR     = 

OBJECT_NAME    = STARLINK-36897
OBJECT_ID      = 2026-037V
CENTER_NAME    = EARTH
REF_FRAME      = TEME
TIME_SYSTEM    = UTC
MEAN_ELEMENT_THEORY = SGP/SGP4

EPOCH          = 2026-03-16T06:09:49.861440
MEAN_MOTION    = 15.82141794
ECCENTRICITY   = .00022693
INCLINATION    = 42.9986
RA_OF_ASC_NODE = 158.1265
ARG_OF_PERICENTER = 313.9072
MEAN_ANOMALY   = 46.1612

EPHEMERIS_TYPE = 0
CLASSIFICATION_TYPE = U
NORAD_CAT_ID   = 67951
ELEMENT_SET_NO = 999
REV_AT_EPOCH   = 429
BSTAR          = .13062598E-2
MEAN_MOTION_DOT = .285461E-2
MEAN_MOTION_DDOT = 0

CCSDS_OMM_VERS = 2.0
CREATION_DATE  = 
ORIGINATOR     = 

OBJECT_NAME    = STARLINK-36381
OBJECT_ID      = 2026-037W
CENTER_NAME    = EARTH
REF_FRAME      = TEME
TIME_SYSTEM    = UTC
MEAN_ELEMENT_THEORY = SGP/SGP4

EPOCH          = 2026-03-16T06:07:40.147392
MEAN_MOTION    = 15.82161289
ECCENTRICITY   = .00031297
INCLINATION    = 42.9985
RA_OF_ASC_NODE = 158.1140
ARG_OF_PERICENTER = 331.6719
MEAN_ANOMALY   = 28.3982

EPHEMERIS_TYPE = 0
CLASSIFICATION_TYPE = U
NORAD_CAT_ID   = 67952
ELEMENT_SET_NO = 999
REV_AT_EPOCH   = 429
BSTAR          = .1525489E-2
MEAN_MOTION_DOT = .335751E-2
MEAN_MOTION_DDOT = 0

